{
  "norad_id": 48678,
  "name": "STARLINK-2615",
  "history": [
    {
      "epoch": "2026-03-28T12:51:26.474976",
      "apogee_km": 476.0457019628557,
      "perigee_km": 474.35443544104237,
      "latitude_deg": 42.42164127474362,
      "longitude_deg": 179.22941664000973,
      "semi_major_axis_km": 6853.337068701949,
      "eccentricity": 0.00012339,
      "inclination_deg": 53.1633,
      "raan_deg": 16.1628,
      "arg_perigee_deg": 88.8084,
      "mean_anomaly_deg": 271.3059,
      "mean_motion_rev_day": 15.30205024
    },
    {
      "epoch": "2026-03-29T01:23:51.318240",
      "apogee_km": 475.90136775054907,
      "perigee_km": 474.4320194386428,
      "latitude_deg": -48.59057097996806,
      "longitude_deg": -130.6096463999711,
      "semi_major_axis_km": 6853.303693594596,
      "eccentricity": 0.0001072,
      "inclination_deg": 53.1614,
      "raan_deg": 13.7353,
      "arg_perigee_deg": 91.9078,
      "mean_anomaly_deg": 268.2045,
      "mean_motion_rev_day": 15.30216202
    }
  ]
}